0 COSMOS 1806
1 17213U 86098A   13279.89430497 -.00000539  00000-0  00000+0 0  8357
2 17213 068.8323 005.3547 5662695 181.3052 227.0369 02.00531985196366
0 COSMOS 1806
1 17213U 86098A   13281.92326625 -.00000556  00000-0  00000+0 0  8361
2 17213 068.8324 005.2447 5662584 181.2634 251.7550 02.00530332196403
0 COSMOS 1806
1 17213U 86098A   13285.26603958 -.00000622  00000-0  00000+0 0  8374
2 17213 068.8330 005.0636 5662496 181.1933 144.8919 02.00527725196460
0 COSMOS 1806
1 17213U 86098A   13287.75761280 -.00000629  00000-0  00000+0 0  8381
2 17213 068.8335 004.9289 5662462 181.1410 143.5281 02.00525716196512
0 COSMOS 1806
1 17213U 86098A   13293.49660071 -.00000563  00000-0  00000+0 0  8393
2 17213 068.8328 004.6190 5662264 181.0179 326.3716 02.00520734196635
